NORAD_CAT_ID,OBJECT_NAME,OBJECT_TYPE,EPOCH,MEAN_MOTION,ECCENTRICITY,INCLINATION,RA_OF_ASC_NODE,ARG_OF_PERICENTER,MEAN_ANOMALY,BSTAR,MEAN_MOTION_DOT,MEAN_MOTION_DDOT,TLE_LINE0,TLE_LINE1,TLE_LINE2,SEMIMAJOR_AXIS,PERIOD,APOGEE,PERIGEE,DECAYED
53632.0,STARLINK-4606,PAYLOAD,2022-11-18 22:00:00,15.27061921,0.0001398,53.2168,241.9861,60.8814,59.4203,-0.047427,-0.01175817,0.0,0 STARLINK-4606,1 53632U 22104AW  22322.91667824 -.01175817  00000-0 -47427-1 0  9999,2 53632  53.2168 241.9861 0001398  60.8814  59.4203 15.27061921  1306,6862.738,94.299,485.562,483.643,0.0
53632.0,STARLINK-4606,PAYLOAD,2022-11-19 14:00:01,15.25412148,0.000146,53.2169,238.912,58.7158,126.5636,-0.048365,-0.01128153,0.0,0 STARLINK-4606,1 53632U 22104AW  22323.58334491 -.01128153  00000-0 -48365-1 0  9997,2 53632  53.2169 238.9120 0001460  58.7158 126.5636 15.25412148  1303,6867.685,94.401,490.55300000000005,488.547,0.0
53632.0,STARLINK-4606,PAYLOAD,2022-11-19 22:00:00,15.24636084,0.0001346,53.2168,237.3783,75.0025,141.2745,-0.051922,-0.01194359,0.0,0 STARLINK-4606,1 53632U 22104AW  22323.91667824 -.01194359  00000-0 -51922-1 0  9997,2 53632  53.2168 237.3783 0001346  75.0025 141.2745 15.24636084  1309,6870.015,94.449,492.805,490.956,0.0
53632.0,STARLINK-4606,PAYLOAD,2022-11-20 06:00:00,15.23810685,0.0001436,53.2164,235.8476,59.2991,187.0213,-0.052385,-0.01176982,0.0,0 STARLINK-4606,1 53632U 22104AW  22324.25001157 -.01176982  00000-0 -52385-1 0  9992,2 53632  53.2164 235.8476 0001436  59.2991 187.0213 15.23810685 13214,6872.496,94.5,495.348,493.374,0.0
53632.0,STARLINK-4606,PAYLOAD,2022-11-20 14:00:01,15.23008733,0.0001356,53.2168,234.3156,59.5483,215.8284,-0.054444,-0.01192892,0.0,0 STARLINK-4606,1 53632U 22104AW  22324.58334491 -.01192892  00000-0 -54444-1 0  9994,2 53632  53.2168 234.3156 0001356  59.5483 215.8284 15.23008733  1305,6874.908,94.55,497.706,495.841,0.0
53632.0,STARLINK-4606,PAYLOAD,2022-11-20 22:00:00,15.22161313,0.0001411,53.2176,232.788,56.8249,246.6526,-0.053583,-0.01148465,0.0,0 STARLINK-4606,1 53632U 22104AW  22324.91667824 -.01148465  00000-0 -53583-1 0  9990,2 53632  53.2176 232.7880 0001411  56.8249 246.6526 15.22161313  1306,6877.46,94.602,500.295,498.354,0.0
53632.0,STARLINK-4606,PAYLOAD,2022-11-21 14:00:01,15.20554268,0.0001208,53.2167,229.7362,59.2894,297.4114,-0.057657,-0.01176124,0.0,0 STARLINK-4606,1 53632U 22104AW  22325.58334491 -.01176124  00000-0 -57657-1 0  9994,2 53632  53.2167 229.7362 0001208  59.2894 297.4114 15.20554268  1304,6882.305,94.702,505.001,503.338,0.0
53632.0,STARLINK-4606,PAYLOAD,2022-11-22 00:00:00,15.19521133,0.0001335,53.2171,227.8344,76.9905,41.0028,-0.058303,-0.01155567,0.0,0 STARLINK-4606,1 53632U 22104AW  22326.00001157 -.01155567  00000-0 -58303-1 0  9999,2 53632  53.2171 227.8344 0001335  76.9905  41.0028 15.19521133  1308,6885.424,94.767,508.208,506.37,0.0
53632.0,STARLINK-4606,PAYLOAD,2022-11-22 14:00:01,15.18094594,0.0001355,53.2166,225.1739,53.4091,15.8805,-0.060536,-0.01151389,0.0,0 STARLINK-4606,1 53632U 22104AW  22326.58335648 -.01151389  00000-0 -60536-1 0  9996,2 53632  53.2166 225.1739 0001355  53.4091  15.8805 15.18094594 13578,6889.736999999999,94.856,512.535,510.668,0.0
53632.0,STARLINK-4606,PAYLOAD,2022-11-22 22:00:00,15.1730495,0.0001276,53.2166,223.6577,78.896,12.5343,-0.0638799999999999,-0.01184681,0.0,0 STARLINK-4606,1 53632U 22104AW  22326.91667824 -.01184681  00000-0 -63880-1 0  9993,2 53632  53.2166 223.6577 0001276  78.8960  12.5343 15.17304950  1307,6892.127,94.905,514.871,513.112,0.0
53632.0,STARLINK-4606,PAYLOAD,2022-11-23 14:00:01,15.15658053,0.0001478,53.2167,220.6289,57.6603,75.2791,-0.065349,-0.01158198,0.0,0 STARLINK-4606,1 53632U 22104AW  22327.58334491 -.01158198  00000-0 -65349-1 0  9994,2 53632  53.2167 220.6289 0001478  57.6603  75.2791 15.15658053  1305,6897.118,95.008,520.003,517.964,0.0
53632.0,STARLINK-4606,PAYLOAD,2022-11-23 16:00:00,15.15447796,0.0001446,53.2171,220.2506,63.5831,164.2718,-0.065139,-0.01148375,0.0,0 STARLINK-4606,1 53632U 22104AW  22327.66667824 -.01148375  00000-0 -65139-1 0  9995,2 53632  53.2171 220.2506 0001446  63.5831 164.2718 15.15447796 13730,6897.755999999999,95.021,520.619,518.624,0.0
53632.0,STARLINK-4606,PAYLOAD,2022-11-23 22:00:00,15.14855771,0.000139,53.2165,219.1184,78.8963,73.319,-0.067782,-0.01172865,0.0,0 STARLINK-4606,1 53632U 22104AW  22327.91667824 -.01172865  00000-0 -67782-1 0  9990,2 53632  53.2165 219.1184 0001390  78.8963  73.3190 15.14855771  1304,6899.553000000001,95.059,522.377,520.4590000000002,0.0
53632.0,STARLINK-4606,PAYLOAD,2022-11-24 14:00:01,15.13218417,0.0001446,53.2162,216.1007,63.2473,124.6057,-0.070168,-0.01160192,0.0,0 STARLINK-4606,1 53632U 22104AW  22328.58334491 -.01160192  00000-0 -70168-1 0  9997,2 53632  53.2162 216.1007 0001446  63.2473 124.6057 15.13218417  1309,6904.53,95.161,527.393,525.396,0.0
53632.0,STARLINK-4606,PAYLOAD,2022-11-24 22:00:00,15.12414062,0.0001453,53.2164,214.5961,81.0602,123.1367,-0.072615,-0.01172701,0.0,0 STARLINK-4606,1 53632U 22104AW  22328.91667824 -.01172701  00000-0 -72615-1 0  9991,2 53632  53.2164 214.5961 0001453  81.0602 123.1367 15.12414062  1303,6906.977,95.212,529.846,527.839,0.0
53632.0,STARLINK-4606,PAYLOAD,2022-11-25 14:00:01,15.10784597,0.0001418,53.2161,211.5896,65.8539,168.1093,-0.075826,-0.0117022,0.0,0 STARLINK-4606,1 53632U 22104AW  22329.58334491 -.01170220  00000-0 -75826-1 0  9997,2 53632  53.2161 211.5896 0001418  65.8539 168.1093 15.10784597 14023,6911.943,95.315,534.788,532.828,0.0
53632.0,STARLINK-4606,PAYLOAD,2022-11-26 00:00:00,15.0963852,0.0001239,53.2167,209.7167,83.7474,256.8584,-0.054411,-0.00825398,0.0,0 STARLINK-4606,1 53632U 22104AW  22330.00001157 -.00825398  00000-0 -54411-1 0  9995,2 53632  53.2167 209.7167 0001239  83.7474 256.8584 15.09638520  1306,6915.441,95.387,538.163,536.4490000000002,0.0
53632.0,STARLINK-4606,PAYLOAD,2022-11-26 06:00:00,15.09101377,0.0001314,53.2159,208.5931,69.8754,189.9443,-0.024769,-0.00377028,0.0,0 STARLINK-4606,1 53632U 22104AW  22330.25001157 -.00377028  00000-0 -24769-1 0  9997,2 53632  53.2159 208.5931 0001314  69.8754 189.9443 15.09101377 14122,6917.081999999999,95.421,539.855,538.038,0.0
53632.0,STARLINK-4606,PAYLOAD,2022-11-26 14:00:01,15.08855236,0.0001177,53.21100000000001,207.0929,66.5025,205.0476,0.0022365,0.000355,0.0,0 STARLINK-4606,1 53632U 22104AW  22330.58334491  .00035500  00000-0  22365-2 0  9998,2 53632  53.2110 207.0929 0001177  66.5025 205.0476 15.08855236 14172,6917.834,95.437,540.513,538.885,0.0
53632.0,STARLINK-4606,PAYLOAD,2022-11-26 22:00:00,15.08858628,0.0001358,53.2123,205.5979,59.5994,223.5773,-0.0019194,-0.00030721,0.0,0 STARLINK-4606,1 53632U 22104AW  22330.91667824 -.00030721  00000-0 -19194-2 0  9992,2 53632  53.2123 205.5979 0001358  59.5994 223.5773 15.08858628 14221,6917.823,95.436,540.628,538.749,0.0
53632.0,STARLINK-4606,PAYLOAD,2022-11-27 14:00:01,15.08809323,0.0001333,53.2134,202.6031,68.1671,238.2221,-0.00057823,-9.471e-05,0.0,0 STARLINK-4606,1 53632U 22104AW  22331.58334491 -.00009471  00000-0 -57823-3 0  9997,2 53632  53.2134 202.6031 0001333  68.1671 238.2221 15.08809323  1305,6917.974,95.439,540.761,538.9169999999998,0.0
53632.0,STARLINK-4606,PAYLOAD,2022-11-27 22:00:00,15.08798405,0.0001439,53.2135,201.1084,60.3548,257.5894,-0.00064256,-0.00010488,0.0,0 STARLINK-4606,1 53632U 22104AW  22331.91667824 -.00010488  00000-0 -64256-3 0  9991,2 53632  53.2135 201.1084 0001439  60.3548 257.5894 15.08798405  1300,6918.0080000000025,95.44,540.868,538.877,0.0
53632.0,STARLINK-4606,PAYLOAD,2022-11-28 00:00:00,15.08786367,0.0001467,53.2136,200.7346,59.2212,351.6115,0.0010987,0.00017215,0.0,0 STARLINK-4606,1 53632U 22104AW  22332.00001157  .00017215  00000-0  10987-2 0  9997,2 53632  53.2136 200.7346 0001467  59.2212 351.6115 15.08786367 14392,6918.044,95.441,540.924,538.894,0.0
53632.0,STARLINK-4606,PAYLOAD,2022-11-28 22:00:01,15.08844727,0.0001575,53.2138,196.6192,63.0587,289.6214,-0.00049522,-8.162e-05,0.0,0 STARLINK-4606,1 53632U 22104AW  22332.91668981 -.00008162  00000-0 -49522-3 0  9992,2 53632  53.2138 196.6192 0001575  63.0587 289.6214 15.08844727  1306,6917.866,95.437,540.821,538.641,0.0
53632.0,STARLINK-4606,PAYLOAD,2022-11-29 06:00:00,15.08864038,0.0001518,53.2137,195.1222,62.5602,301.6504,-0.0019425,-0.0003109,0.0,0 STARLINK-4606,1 53632U 22104AW  22333.25001157 -.00031090  00000-0 -19425-2 0  9990,2 53632  53.2137 195.1222 0001518  62.5602 301.6504 15.08864038 14580,6917.807,95.436,540.722,538.622,0.0
53632.0,STARLINK-4606,PAYLOAD,2022-11-29 14:00:01,15.08848677,0.0001415,53.214,193.6246,71.2276,304.6572,0.00056893,8.78e-05,0.0,0 STARLINK-4606,1 53632U 22104AW  22333.58335648  .00008780  00000-0  56893-3 0  9990,2 53632  53.2140 193.6246 0001415  71.2276 304.6572 15.08848677  1308,6917.854,95.437,540.698,538.74,0.0
53632.0,STARLINK-4606,PAYLOAD,2022-11-29 22:00:00,15.08837818,0.0001488,53.214,192.13,62.9349,324.5017,-0.0010181,-0.00016453,0.0,0 STARLINK-4606,1 53632U 22104AW  22333.91667824 -.00016453  00000-0 -10181-2 0  9998,2 53632  53.2140 192.1300 0001488  62.9349 324.5017 15.08837818 14686,6917.887,95.438,540.781,538.7230000000002,0.0
53632.0,STARLINK-4606,PAYLOAD,2022-11-30 14:00:01,15.08830695,0.0001357,53.2141,189.1356,72.6323,338.0441,0.0019497,0.0003087,0.0,0 STARLINK-4606,1 53632U 22104AW  22334.58335648  .00030870  00000-0  19497-2 0  9994,2 53632  53.2141 189.1356 0001357  72.6323 338.0441 15.08830695 14787,6917.909000000002,95.438,540.7130000000002,538.835,0.0
53632.0,STARLINK-4606,PAYLOAD,2022-11-30 22:00:00,15.08817053,0.000147,53.2156,187.6424,68.712,353.5048,0.0047864,0.00076669,0.0,0 STARLINK-4606,1 53632U 22104AW  22334.91667824  .00076669  00000-0  47864-2 0  9990,2 53632  53.2156 187.6424 0001470  68.7120 353.5048 15.08817053  1301,6917.951,95.439,540.832,538.799,0.0
